QIANFAN-1               
1 60379U 24140A   25205.89520413  .00000120  00000+0  16825-3 0  9999
2 60379  88.9845 313.8311 0015596 259.2367 100.7029 13.50953362 48333
QIANFAN-2               
1 60380U 24140B   25205.92402653  .00000117  00000+0  16296-3 0  9998
2 60380  88.9830 313.6870 0011555 226.3067 133.7128 13.50959753 48392
QIANFAN-3               
1 60381U 24140C   25206.22844658  .00000124  00000+0  17409-3 0  9993
2 60381  88.9823 313.7987 0012348 239.9297 120.0630 13.50958012 48340
QIANFAN-4               
1 60382U 24140D   25205.90755633  .00000112  00000+0  15441-3 0  9993
2 60382  88.9848 313.6941 0011705 229.4133 130.6000 13.50953362 48426
QIANFAN-5               
1 60383U 24140E   25206.10512472  .00000132  00000+0  18581-3 0  9999
2 60383  88.9823 313.8372 0013352 253.5773 106.3911 13.50956506 48310
QIANFAN-6               
1 60384U 24140F   25206.19964573  .00000112  00000+0  15500-3 0  9998
2 60384  88.9850 313.5363 0011672 235.2004 124.8049 13.50953128 48522
QIANFAN-7               
1 60385U 24140G   25206.13562685  .00000589  00000+0  23378-3 0  9991
2 60385  88.9852 310.2168 0016975 137.8583 222.3920 14.27486751 50334
QIANFAN-8               
1 60386U 24140H   25206.20798881  .00000127  00000+0  17790-3 0  9998
2 60386  88.9851 313.7704 0015052 239.1260 120.8411 13.50957124 48405
